PROBA-1                 
1 26958U 01049B   26066.23424685  .00002234  00000+0  14845-3 0  9993
2 26958  97.9623  71.2264 0056842 107.1511 253.5950 15.07003752328261
CUTE-1 (CO-55)          
1 27844U 03031E   26065.96450898  .00000418  00000+0  20017-3 0  9995
2 27844  98.6780  75.7971 0010585 119.5034 240.7202 14.24263294177125
CUBESAT XI-IV (CO-57)   
1 27848U 03031J   26065.97229987  .00000340  00000+0  16835-3 0  9990
2 27848  98.6809  75.5995 0010270 135.9414 224.2584 14.23558791176835
APRIZESAT 4             
1 35684U 09041D   26066.15957798  .00001008  00000+0  12720-3 0  9994
2 35684  98.1490 139.4300 0042193 293.1269  66.5500 14.83702098896232
APRIZESAT 3             
1 35686U 09041F   26065.96872638  .00002356  00000+0  20823-3 0  9993
2 35686  98.1899 214.4076 0063133  45.6164 315.0201 14.95889217901095
PROBA-2                 
1 36037U 09059B   26066.03776632  .00000370  00000+0  96935-4 0  9991
2 36037  98.2428 250.8079 0012227 233.0350 126.9728 14.54788914866674
APRIZESAT 5             
1 37792U 11044E   26065.57988650  .00002105  00000+0  27406-3 0  9994
2 37792  98.2402 355.7657 0051926 334.6195  25.2467 14.80846140783603
APRIZESAT 6             
1 37793U 11044F   26065.52274729  .00001376  00000+0  20124-3 0  9994
2 37793  98.2420 333.9100 0044400  55.3828 120.7989 14.76744408781993
PROBA-V                 
1 39159U 13021A   26065.92432132  .00000096  00000+0  60105-4 0  9999
2 39159  98.3503  49.6266 0005343  76.1895 283.9879 14.23572723666562
APRIZESAT 7             
1 39416U 13066A   26066.10841168  .00001821  00000+0  18649-3 0  9990
2 39416  97.7595  20.8860 0035649 187.3450 172.7251 14.91271650666016
APRIZESAT 8             
1 39425U 13066K   26066.09825085  .00001686  00000+0  18931-3 0  9991
2 39425  97.8116  15.0742 0044587 261.7518  97.8641 14.87414176664491
BUGSAT-1 (TITA)         
1 40014U 14033E   26066.19376072  .00007275  00000+0  39549-3 0  9998
2 40014  98.0431 152.8757 0029152 166.9444 193.2547 15.14455261640391
SAUDISAT 4              
1 40016U 14033G   26065.99265532  .00001032  00000+0  14292-3 0  9998
2 40016  97.7406 215.7607 0045890  47.3099 313.1964 14.79383413630966
APRIZESAT 9             
1 40018U 14033J   26065.91735947  .00001321  00000+0  20140-3 0  9994
2 40018  97.8876 201.7229 0066652 168.0470 192.2340 14.74065586628490
APRIZESAT 10            
1 40019U 14033K   26066.08173104  .00001032  00000+0  16977-3 0  9997
2 40019  97.9474 195.4243 0077871 239.3464 120.0050 14.70745748627241
TECHDEMOSAT-1 (TDS-1)   
1 40076U 14037H   26066.20823553  .00012602  00000+0  74759-3 0  9995
2 40076  98.3779  48.4851 0004516 247.8164 112.2584 15.11506592632818
TECHNOSAT               
1 42829U 17042E   26065.96699587  .00004652  00000+0  33716-3 0  9996
2 42829  97.4154 227.6349 0019760  84.2578 276.0900 15.04256877471334
FLYING LAPTOP           
1 42831U 17042G   26066.17729181  .00002952  00000+0  23799-3 0  9998
2 42831  97.4268 225.9628 0018941 103.5602 256.7734 15.00494369471153
HAWK-A                  
1 43765U 18099H   26066.11425706  .00008297  00000+0  34830-3 0  9994
2 43765  97.4053 119.7146 0034336 285.0222  74.7215 15.23176868397556
HAWK-B                  
1 43794U 18099AN  26066.08334049  .00008016  00000+0  35473-3 0  9994
2 43794  97.4101 119.3035 0031437 302.9671  56.8544 15.21483438397504
HAWK-C                  
1 43799U 18099AT  26066.11591030  .00009645  00000+0  36533-3 0  9995
2 43799  97.4029 120.1476 0040461 286.8621  72.8182 15.26343476398339
SALSAT                  
1 46495U 20068K   26065.92289661  .00011302  00000+0  41467-3 0  9997
2 46495  97.8857  62.8923 0008446 308.5318  51.5163 15.28115498299739
HAWK-2C                 
1 47502U 21006CT  26066.06544328  .00007899  00000+0  24820-3 0  9990
2 47502  97.2416 112.4381 0006694 193.7627 166.3434 15.33235853283849
HAWK-2A                 
1 47505U 21006CW  26066.06898549  .00007940  00000+0  24937-3 0  9996
2 47505  97.2463 113.0590 0006158 197.3275 162.7759 15.33253652283844
HAWK-2B                 
1 47508U 21006CZ  26066.06579905  .00009180  00000+0  28802-3 0  9994
2 47508  97.2335 111.5591 0006799 195.1415 164.9625 15.33234385283840
HAWK-3B                 
1 48931U 21059BE  26066.05062467  .00044188  00000+0  51930-3 0  9997
2 48931  97.6717 253.7152 0005264 348.5076  11.6059 15.61319494261878
HAWK-3C                 
1 48948U 21059BX  26066.05038679  .00045624  00000+0  53576-3 0  9997
2 48948  97.6864 259.2093 0005697 349.6538  10.4600 15.61330398261874
HAWK-3A                 
1 48957U 21059CG  26066.05021064  .00041759  00000+0  49093-3 0  9991
2 48957  97.6797 256.4996 0005358 349.0440  11.0699 15.61321372261877
HAWK-5C                 
1 52754U 22057Y   26066.13771426  .00029706  00000+0  58068-3 0  9993
2 52754  97.6453 219.6237 0005648  84.1509 276.0384 15.47391841210544
HAWK-5B                 
1 52756U 22057AA  26066.13758160  .00027495  00000+0  53777-3 0  9990
2 52756  97.6455 217.9639 0005627  78.9773 281.2109 15.47391247210549
HAWK-5A                 
1 52757U 22057AB  26066.13730292  .00026372  00000+0  51591-3 0  9992
2 52757  97.6456 218.7976 0006048  81.2343 278.9590 15.47390582210540
HAWK-6B                 
1 55324U 23011A   26065.52327582  .00008286  00000+0  36491-3 0  9998
2 55324  40.5119 230.4147 0002450   0.8362 359.2451 15.21857101172192
HAWK-6C                 
1 55326U 23011C   26065.91642166  .00006965  00000+0  30814-3 0  9996
2 55326  40.4836 224.9998 0002913 351.1545   8.9212 15.21851399172264
HAWK-6A                 
1 55327U 23011D   26065.78518394  .00008953  00000+0  39351-3 0  9991
2 55327  40.4981 227.3681 0002606 345.4771  14.5962 15.21859003172241
HAWK-7A                 
1 56191U 23054P   26065.93537379  .00006277  00000+0  24567-3 0  9999
2 56191  97.2833 315.8739 0004565  56.8365 303.3311 15.26155962161425
HAWK-7B                 
1 56193U 23054R   26066.13199590  .00007490  00000+0  29256-3 0  9991
2 56193  97.2866 314.2909 0003815  66.5575 293.6064 15.26158576161456
HAWK-7C                 
1 56200U 23054Y   26066.13187900  .00007332  00000+0  28644-3 0  9997
2 56200  97.2841 315.0930 0003828  57.5471 302.6137 15.26159342161454
